[{"OBJECT_NAME":"STARLINK-4108","OBJECT_ID":"2022-062E","EPOCH":"2026-03-09T07:08:21.181632","MEAN_MOTION":15.08841845,"ECCENTRICITY":0.00015446,"INCLINATION":53.2182,"RA_OF_ASC_NODE":35.8811,"ARG_OF_PERICENTER":79.6679,"MEAN_ANOMALY":280.4487,"EPHEMERIS_TYPE":0,"CLASSIFICATION_TYPE":"U","NORAD_CAT_ID":52834,"ELEMENT_SET_NO":999,"REV_AT_EPOCH":20572,"BSTAR":3.8282983e-5,"MEAN_MOTION_DOT":3.21e-6,"MEAN_MOTION_DDOT":0},{"OBJECT_NAME":"DISKSAT C","OBJECT_ID":"2025-305A","EPOCH":"2026-03-09T19:16:32.318976","MEAN_MOTION":15.07852977,"ECCENTRICITY":0.00045341,"INCLINATION":45.0017,"RA_OF_ASC_NODE":250.1278,"ARG_OF_PERICENTER":310.7706,"MEAN_ANOMALY":49.2776,"EPHEMERIS_TYPE":0,"CLASSIFICATION_TYPE":"U","NORAD_CAT_ID":67219,"ELEMENT_SET_NO":999,"REV_AT_EPOCH":1231,"BSTAR":0.00075564202,"MEAN_MOTION_DOT":0.00011541,"MEAN_MOTION_DDOT":0}]
